{
    "links": {
        "self": "http://www.neowsapp.com/rest/v1/neo/3184152?api_key=iIulBulltgU6a56xZRHN4H3l9WmuAYTsLGpBGhQ2"
    },
    "id": "3184152",
    "neo_reference_id": "3184152",
    "name": "(2004 MN1)",
    "designation": "2004 MN1",
    "nasa_jpl_url": "http://ssd.jpl.nasa.gov/sbdb.cgi?sstr=3184152",
    "absolute_magnitude_h": 24.6,
    "estimated_diameter": {
        "kilometers": {
            "estimated_diameter_min": 0.0319561887,
            "estimated_diameter_max": 0.0714562102
        },
        "meters": {
            "estimated_diameter_min": 31.9561886721,
            "estimated_diameter_max": 71.4562101727
        },
        "miles": {
            "estimated_diameter_min": 0.0198566489,
            "estimated_diameter_max": 0.0444008168
        },
        "feet": {
            "estimated_diameter_min": 104.8431420431,
            "estimated_diameter_max": 234.436392583
        }
    },
    "is_potentially_hazardous_asteroid": false,
    "close_approach_data": [
        {
            "close_approach_date": "2004-06-17",
            "close_approach_date_full": "2004-Jun-17 10:37",
            "epoch_date_close_approach": 1087468620000,
            "relative_velocity": {
                "kilometers_per_second": "18.7377122743",
                "kilometers_per_hour": "67455.7641875617",
                "miles_per_hour": "41914.3885864324"
            },
            "miss_distance": {
                "astronomical": "0.0286789488",
                "lunar": "11.1561110832",
                "kilometers": "4290309.654319056",
                "miles": "2665874.8009367328"
            },
            "orbiting_body": "Earth"
        }
    ],
    "orbital_data": {
        "orbit_id": "7",
        "orbit_determination_date": "2017-04-06 09:12:38",
        "first_observation_date": "2004-06-16",
        "last_observation_date": "2004-06-17",
        "data_arc_in_days": 1,
        "observations_used": 6,
        "orbit_uncertainty": "9",
        "minimum_orbit_intersection": ".0163561",
        "jupiter_tisserand_invariant": "4.488",
        "epoch_osculation": "2453173.5",
        "eccentricity": ".4069254406127062",
        "semi_major_axis": "1.420453585414935",
        "inclination": "30.19704181486402",
        "ascending_node_longitude": "84.57302655493341",
        "orbital_period": "618.356596151808",
        "perihelion_distance": ".8424348843000641",
        "perihelion_argument": "249.1966474151668",
        "aphelion_distance": "1.998472286529805",
        "perihelion_time": "2453226.222768045841",
        "mean_anomaly": "329.3054192117924",
        "mean_motion": ".5821883396091713",
        "equinox": "J2000",
        "orbit_class": {
            "orbit_class_type": "APO",
            "orbit_class_description": "Near-Earth asteroid orbits which cross the Earth’s orbit similar to that of 1862 Apollo",
            "orbit_class_range": "a (semi-major axis) > 1.0 AU; q (perihelion) < 1.017 AU"
        }
    },
    "is_sentry_object": false
}